NORAD_CAT_ID,OBJECT_NAME,OBJECT_TYPE,EPOCH,MEAN_MOTION,ECCENTRICITY,INCLINATION,RA_OF_ASC_NODE,ARG_OF_PERICENTER,MEAN_ANOMALY,BSTAR,MEAN_MOTION_DOT,MEAN_MOTION_DDOT,TLE_LINE0,TLE_LINE1,TLE_LINE2,SEMIMAJOR_AXIS,PERIOD,APOGEE,PERIGEE,DECAYED
54072.0,STARLINK-5144,PAYLOAD,2023-11-09 00:20:16,15.08843966,0.0001277,53.2158,207.1794,102.1958,257.9178,0.00085727,0.00013383,0.0,0 STARLINK-5144,1 54072U 22136X   23313.01408335  .00013383  00000-0  85727-3 0  9998,2 54072  53.2158 207.1794 0001277 102.1958 257.9178 15.08843966 58751,6917.868,95.437,540.617,538.85,0.0
54072.0,STARLINK-5144,PAYLOAD,2023-11-09 22:35:40,15.08847381,0.000135,53.2159,203.0181,109.6687,250.4451,0.00014916,2.087e-05,0.0,0 STARLINK-5144,1 54072U 22136X   23313.94143904  .00002087  00000-0  14916-3 0  9999,2 54072  53.2159 203.0181 0001350 109.6687 250.4451 15.08847381 58410,6917.858,95.437,540.657,538.789,0.0
54072.0,STARLINK-5144,PAYLOAD,2023-11-10 00:11:03,15.0884764,0.0001263,53.2157,202.7205,108.1993,251.9137,0.00015235,2.138e-05,0.0,0 STARLINK-5144,1 54072U 22136X   23314.00767816  .00002138  00000-0  15235-3 0  9993,2 54072  53.2157 202.7205 0001263 108.1993 251.9137 15.08847640 58907,6917.857,95.437,540.596,538.848,0.0
54072.0,STARLINK-5144,PAYLOAD,2023-11-10 09:43:22,15.08843261,0.0001203,53.2161,200.9343,89.922,270.191,6.2975e-05,7.15e-06,0.0,0 STARLINK-5144,1 54072U 22136X   23314.40511966  .00000715  00000-0  62975-4 0  9993,2 54072  53.2161 200.9343 0001203  89.9220 270.1910 15.08843261 58961,6917.87,95.437,540.568,538.903,0.0
54072.0,STARLINK-5144,PAYLOAD,2023-11-10 22:26:27,15.08841093,0.0001526,53.2155,198.5525,95.9635,264.1531,6.9156e-06,-1.78e-06,0.0,0 STARLINK-5144,1 54072U 22136X   23314.93503846 -.00000178  00000-0  69156-5 0  9992,2 54072  53.2155 198.5525 0001526  95.9635 264.1531 15.08841093 58562,6917.877,95.437,540.798,538.686,0.0
54072.0,STARLINK-5144,PAYLOAD,2023-11-11 09:34:09,15.08840234,0.0001529,53.216,196.4716,85.3009,274.8158,6.02e-05,6.7e-06,0.0,0 STARLINK-5144,1 54072U 22136X   23315.39872022  .00000670  00000-0  60200-4 0  9994,2 54072  53.2160 196.4716 0001529  85.3009 274.8158 15.08840234 58635,6917.88,95.438,540.802,538.687,0.0
54072.0,STARLINK-5144,PAYLOAD,2023-11-11 15:55:42,15.0884004,0.000157,53.2156,195.2856,82.4797,277.6374,0.00010908,1.448e-05,0.0,0 STARLINK-5144,1 54072U 22136X   23315.66368353  .00001448  00000-0  10908-3 0  9994,2 54072  53.2156 195.2856 0001570  82.4797 277.6374 15.08840040 59154,6917.88,95.438,540.831,538.659,0.0
54072.0,STARLINK-5144,PAYLOAD,2023-11-11 22:17:14,15.08840156,0.0001381,53.2149,194.094,90.575,269.54,6.9992e-05,8.26e-06,0.0,0 STARLINK-5144,1 54072U 22136X   23315.92864316  .00000826  00000-0  69992-4 0  9990,2 54072  53.2149 194.0940 0001381  90.5750 269.5400 15.08840156 58715,6917.88,95.438,540.7,538.79,0.0
54072.0,STARLINK-5144,PAYLOAD,2023-11-12 09:24:56,15.08843571,0.0001453,53.2153,192.0125,87.4152,272.7007,0.0001239,1.685e-05,0.0,0 STARLINK-5144,1 54072U 22136X   23316.39232240  .00001685  00000-0  12390-3 0  9990,2 54072  53.2153 192.0125 0001453  87.4152 272.7007 15.08843571 58784,6917.869,95.437,540.74,538.729,0.0
54072.0,STARLINK-5144,PAYLOAD,2023-11-12 22:08:01,15.08842871,0.0001381,53.2152,189.6322,91.1107,269.0043,0.00042523,6.487e-05,0.0,0 STARLINK-5144,1 54072U 22136X   23316.92224192  .00006487  00000-0  42523-3 0  9992,2 54072  53.2152 189.6322 0001381  91.1107 269.0043 15.08842871 58866,6917.872,95.437,540.692,538.781,0.0
54072.0,STARLINK-5144,PAYLOAD,2023-11-13 01:18:47,15.08852971,0.0001405,53.2151,189.0374,91.7229,268.3924,0.00023199,3.407e-05,0.0,0 STARLINK-5144,1 54072U 22136X   23317.05471644  .00003407  00000-0  23199-3 0  9990,2 54072  53.2151 189.0374 0001405  91.7229 268.3924 15.08852971 59362,6917.841,95.437,540.678,538.734,0.0
54072.0,STARLINK-5144,PAYLOAD,2023-11-13 09:15:43,15.08841274,0.0001514,53.2154,187.552,86.5248,273.5917,9.9491e-05,1.296e-05,0.0,0 STARLINK-5144,1 54072U 22136X   23317.38592277  .00001296  00000-0  99491-4 0  9995,2 54072  53.2154 187.5520 0001514  86.5248 273.5917 15.08841274 59415,6917.876,95.437,540.789,538.694,0.0
54072.0,STARLINK-5144,PAYLOAD,2023-11-13 21:58:48,15.08844283,0.0001472,53.2144,185.1721,88.3716,271.7444,0.00015234,2.138e-05,0.0,0 STARLINK-5144,1 54072U 22136X   23317.91584058  .00002138  00000-0  15234-3 0  9990,2 54072  53.2144 185.1721 0001472  88.3716 271.7444 15.08844283 59018,6917.867,95.437,540.751,538.714,0.0
54072.0,STARLINK-5144,PAYLOAD,2023-11-14 01:09:34,15.08845035,0.0001425,53.2151,184.5773,89.0044,271.1111,0.00011643,1.566e-05,0.0,0 STARLINK-5144,1 54072U 22136X   23318.04831995  .00001566  00000-0  11643-3 0  9994,2 54072  53.2151 184.5773 0001425  89.0044 271.1111 15.08845035 59039,6917.865,95.437,540.716,538.744,0.0
54072.0,STARLINK-5144,PAYLOAD,2023-11-14 15:28:03,15.08840799,0.0001403,53.2149,181.901,88.4089,271.7064,2.474e-05,1.06e-06,0.0,0 STARLINK-5144,1 54072U 22136X   23318.64448145  .00000106  00000-0  24740-4 0  9993,2 54072  53.2149 181.9010 0001403  88.4089 271.7064 15.08840799 59607,6917.878,95.438,540.714,538.772,0.0
54072.0,STARLINK-5144,PAYLOAD,2023-11-14 21:49:35,15.08843428,0.000143,53.2149,180.7107,92.8464,267.2692,6.0403e-05,6.74e-06,0.0,0 STARLINK-5144,1 54072U 22136X   23318.90943954  .00000674  00000-0  60403-4 0  9996,2 54072  53.2149 180.7107 0001430  92.8464 267.2692 15.08843428 59167,6917.87,95.437,540.724,538.746,0.0
54072.0,STARLINK-5144,PAYLOAD,2023-11-15 01:00:21,15.08846466,0.0001433,53.216,180.1162,89.5143,270.6013,-9.0719e-05,-1.732e-05,0.0,0 STARLINK-5144,1 54072U 22136X   23319.04191785 -.00001732  00000-0 -90719-4 0  9990,2 54072  53.2160 180.1162 0001433  89.5143 270.6013 15.08846466 59187,6917.861,95.437,540.717,538.734,0.0
54072.0,STARLINK-5144,PAYLOAD,2023-11-15 21:40:21,15.08861049,0.0001401,53.2206,176.2522,91.0151,269.1002,0.00029685,4.442e-05,0.0,0 STARLINK-5144,1 54072U 22136X   23319.90302453  .00004442  00000-0  29685-3 0  9993,2 54072  53.2206 176.2522 0001401  91.0151 269.1002 15.08861049 59316,6917.816,95.436,540.65,538.712,0.0
54072.0,STARLINK-5144,PAYLOAD,2023-11-16 00:51:07,15.08854573,8.31e-05,53.2165,175.6571,75.8721,284.2363,0.00027706,4.126e-05,0.0,0 STARLINK-5144,1 54072U 22136X   23320.03550662  .00004126  00000-0  27706-3 0  9997,2 54072  53.2165 175.6571 0000831  75.8721 284.2363 15.08854573 59813,6917.836,95.437,540.276,539.126,0.0
54072.0,STARLINK-5144,PAYLOAD,2023-11-16 21:31:09,15.08827378,0.0001457,53.2172,171.7906,78.521,281.5946,-0.00016341,-2.887e-05,0.0,0 STARLINK-5144,1 54072U 22136X   23320.89664217 -.00002887  00000-0 -16341-3 0  9990,2 54072  53.2172 171.7906 0001457  78.5210 281.5946 15.08827378 59469,6917.919,95.438,540.792,538.776,0.0
54072.0,STARLINK-5144,PAYLOAD,2023-11-17 07:03:28,15.08830091,0.0001365,53.216,170.0076,85.4742,274.6406,-0.00025107,-4.28e-05,0.0,0 STARLINK-5144,1 54072U 22136X   23321.29408316 -.00004280  00000-0 -25107-3 0  9990,2 54072  53.2160 170.0076 0001365  85.4742 274.6406 15.08830091 59528,6917.911,95.438,540.72,538.831,0.0
54072.0,STARLINK-5144,PAYLOAD,2023-11-18 06:54:16,15.08829396,0.0001539,53.214,165.5468,88.1832,271.9337,0.00021871,3.194e-05,0.0,0 STARLINK-5144,1 54072U 22136X   23322.28769410  .00003194  00000-0  21871-3 0  9990,2 54072  53.2140 165.5468 0001539  88.1832 271.9337 15.08829396 60153,6917.913,95.438,540.842,538.713,0.0
54072.0,STARLINK-5144,PAYLOAD,2023-11-18 13:15:49,15.08831473,0.0001378,53.2156,164.3575,89.1695,270.9455,0.0002372,3.488e-05,0.0,0 STARLINK-5144,1 54072U 22136X   23322.55265500  .00003488  00000-0  23720-3 0  9992,2 54072  53.2156 164.3575 0001378  89.1695 270.9455 15.08831473 59714,6917.906,95.438,540.725,538.818,0.0
54072.0,STARLINK-5144,PAYLOAD,2023-11-18 19:37:21,15.08834565,0.0001094,53.2148,163.1685,90.9397,269.1721,0.00018063,2.588e-05,0.0,0 STARLINK-5144,1 54072U 22136X   23322.81761459  .00002588  00000-0  18063-3 0  9999,2 54072  53.2148 163.1685 0001094  90.9397 269.1721 15.08834565 59753,6917.897,95.438,540.519,539.005,0.0
54072.0,STARLINK-5144,PAYLOAD,2023-11-19 13:06:36,15.08841633,0.000148,53.2152,159.8976,88.2172,271.899,0.00021112,3.074e-05,0.0,0 STARLINK-5144,1 54072U 22136X   23323.54625442  .00003074  00000-0  21112-3 0  9991,2 54072  53.2152 159.8976 0001480  88.2172 271.8990 15.08841633 59867,6917.875,95.437,540.764,538.717,0.0
54072.0,STARLINK-5144,PAYLOAD,2023-11-19 19:28:09,15.08809209,0.0001317,53.2163,158.7064,102.4937,257.6203,0.00071854,0.00011157,0.0,0 STARLINK-5144,1 54072U 22136X   23323.81122372  .00011157  00000-0  71854-3 0  9994,2 54072  53.2163 158.7064 0001317 102.4937 257.6203 15.08809209 60383,6917.975,95.44,540.751,538.928,0.0
54072.0,STARLINK-5144,PAYLOAD,2023-11-19 22:38:55,15.08832373,0.0001325,53.217,158.113,91.6502,268.4642,4.6613e-05,4.54e-06,0.0,0 STARLINK-5144,1 54072U 22136X   23323.94370260  .00000454  00000-0  46613-4 0  9993,2 54072  53.2170 158.1130 0001325  91.6502 268.4642 15.08832373 60403,6917.904,95.438,540.685,538.852,0.0
54072.0,STARLINK-5144,PAYLOAD,2023-11-20 12:57:24,15.08836189,0.0001289,53.2164,155.4361,92.0842,268.0297,6.6255e-05,7.67e-06,0.0,0 STARLINK-5144,1 54072U 22136X   23324.53986224  .00000767  00000-0  66255-4 0  9993,2 54072  53.2164 155.4361 0001289  92.0842 268.0297 15.08836189 60011,6917.892,95.438,540.649,538.865,0.0
54072.0,STARLINK-5144,PAYLOAD,2023-11-20 19:18:56,15.08838021,0.0001278,53.2161,154.2465,92.3044,267.8094,7.4023e-05,8.9e-06,0.0,0 STARLINK-5144,1 54072U 22136X   23324.80482106  .00000890  00000-0  74023-4 0  9992,2 54072  53.2161 154.2465 0001278  92.3044 267.8094 15.08838021 60058,6917.886,95.438,540.636,538.867,0.0
54072.0,STARLINK-5144,PAYLOAD,2023-11-20 22:29:42,15.08840184,0.0001288,53.2163,153.6512,95.1,265.0139,3.1786e-05,2.18e-06,0.0,0 STARLINK-5144,1 54072U 22136X   23324.93730016  .00000218  00000-0  31786-4 0  9995,2 54072  53.2163 153.6512 0001288  95.1000 265.0139 15.08840184 60558,6917.88,95.438,540.636,538.854,0.0
